0 COSMOS 2251 DEB
1 37984U 93036BQK 13280.76163725  .00008134  00000-0  19024-2 0  1494
2 37984 073.8937 078.1084 0093135 063.9979 297.0736 14.52116751193800
0 COSMOS 2251 DEB
1 37984U 93036BQK 13288.75281009  .00008280  00000-0  19279-2 0  1503
2 37984 073.8981 062.9312 0094358 050.2291 310.7523 14.52250518194963
0 COSMOS 2251 DEB
1 37984U 93036BQK 13290.68157574  .00018165  00000-0  42110-2 0  1511
2 37984 073.8918 059.2290 0093868 039.3852 321.4573 14.52321622195244
0 COSMOS 2251 DEB
1 37984U 93036BQK 13290.68159293  .00008451  00000-0  19607-2 0  1513
2 37984 073.8863 059.2636 0096535 046.2917 314.7142 14.52287135195247
0 COSMOS 2251 DEB
1 37984U 93036BQK 13292.74807975  .00009211  00000-0  21702-2 0  1524
2 37984 073.9337 055.3281 0082081 038.9031 322.0970 14.52337500195549
